start=new Date('2022-07-19T00:00:00.000Z').valueOf();
sats=[{"REF_FRAME":"TEME","RCS_SIZE":"LARGE","REV_AT_EPOCH":"7190","DECAY_DATE":null,"MEAN_ANOMALY":"264.0426","NORAD_CAT_ID":"48130","BSTAR":"0.00010844000000","CLASSIFICATION_TYPE":"U","GP_ID":"208405772","CENTER_NAME":"EARTH","LAUNCH_DATE":"2021-04-07","ECCENTRICITY":"0.00012670","SEMIMAJOR_AXIS":"6925.311","MEAN_MOTION_DOT":"0.00001335","EPOCH":"2022-07-18T19:11:25.081440","TIME_SYSTEM":"UTC","MEAN_MOTION_DDOT":"0.0000000000000","RA_OF_ASC_NODE":"26.7334","PERIOD":"95.591","PERIAPSIS":"546.298","SITE":"AFETR","EPHEMERIS_TYPE":"0","OBJECT_TYPE":"PAYLOAD","OBJECT_NAME":"STARLINK-2472","TLE_LINE1":"1 48130U 21027AQ  22199.79959585  .00001335  00000-0  10844-3 0  9990","TLE_LINE2":"2 48130  53.0561  26.7334 0001267  96.0708 264.0426 15.06412305 71907","OBJECT_ID":"2021-027AQ","MEAN_ELEMENT_THEORY":"SGP4","ARG_OF_PERICENTER":"96.0708","FILE":"3517175","INCLINATION":"53.0561","APOAPSIS":"548.053","ELEMENT_SET_NO":"999","MEAN_MOTION":"15.06412305","COUNTRY_CODE":"US"},{"MEAN_MOTION_DDOT":"0.0000000000000","EPOCH":"2022-07-18T16:28:53.658624","TIME_SYSTEM":"UTC","MEAN_MOTION_DOT":"0.00000005","LAUNCH_DATE":"2021-04-07","SEMIMAJOR_AXIS":"6925.331","ECCENTRICITY":"0.00013400","CENTER_NAME":"EARTH","EPHEMERIS_TYPE":"0","SITE":"AFETR","PERIAPSIS":"546.268","PERIOD":"95.592","RA_OF_ASC_NODE":"2.2262","REV_AT_EPOCH":"7223","DECAY_DATE":null,"RCS_SIZE":"LARGE","REF_FRAME":"TEME","CLASSIFICATION_TYPE":"U","GP_ID":"208407022","BSTAR":"0.00001922400000","NORAD_CAT_ID":"48131","MEAN_ANOMALY":"280.7532","ELEMENT_SET_NO":"999","APOAPSIS":"548.124","INCLINATION":"53.0557","FILE":"3517175","ARG_OF_PERICENTER":"79.3608","MEAN_ELEMENT_THEORY":"SGP4","OBJECT_ID":"2021-027AR","COUNTRY_CODE":"US","MEAN_MOTION":"15.06405860","TLE_LINE1":"1 48131U 21027AR  22199.68673216  .00000005  00000-0  19224-4 0  9998","OBJECT_TYPE":"PAYLOAD","OBJECT_NAME":"STARLINK-2473","TLE_LINE2":"2 48131  53.0557   2.2262 0001340  79.3608 280.7532 15.06405860 72235"},{"INCLINATION":"53.0564","FILE":"3517175","ARG_OF_PERICENTER":"81.6766","MEAN_ELEMENT_THEORY":"SGP4","OBJECT_ID":"2021-027AS","ELEMENT_SET_NO":"999","APOAPSIS":"548.251","MEAN_MOTION":"15.06397968","COUNTRY_CODE":"US","TLE_LINE1":"1 48132U 21027AS  22199.73281230 -.00001006  00000-0 -48638-4 0  9991","OBJECT_TYPE":"PAYLOAD","OBJECT_NAME":"STARLINK-2474","TLE_LINE2":"2 48132  53.0564  22.0408 0001489  81.6766 278.4392 15.06397968 71956","LAUNCH_DATE":"2021-04-07","SEMIMAJOR_AXIS":"6925.355","ECCENTRICITY":"0.00014890","CENTER_NAME":"EARTH","MEAN_MOTION_DDOT":"0.0000000000000","TIME_SYSTEM":"UTC","EPOCH":"2022-07-18T17:35:14.982720","MEAN_MOTION_DOT":"-0.00001006","PERIAPSIS":"546.189","PERIOD":"95.592","RA_OF_ASC_NODE":"22.0408","EPHEMERIS_TYPE":"0","SITE":"AFETR","REV_AT_EPOCH":"7195","DECAY_DATE":null,"RCS_SIZE":"LARGE","REF_FRAME":"TEME","NORAD_CAT_ID":"48132","MEAN_ANOMALY":"278.4392","GP_ID":"208407260","CLASSIFICATION_TYPE":"U","BSTAR":"-0.00004863800000"},{"PERIAPSIS":"546.253","RA_OF_ASC_NODE":"21.7587","PERIOD":"95.592","SITE":"AFETR","EPHEMERIS_TYPE":"0","ECCENTRICITY":"0.00014050","LAUNCH_DATE":"2021-04-07","SEMIMAJOR_AXIS":"6925.361","CENTER_NAME":"EARTH","MEAN_MOTION_DDOT":"0.0000000000000","MEAN_MOTION_DOT":"-0.00000924","TIME_SYSTEM":"UTC","EPOCH":"2022-07-18T19:05:29.158368","NORAD_CAT_ID":"48133","MEAN_ANOMALY":"281.8758","GP_ID":"208406022","CLASSIFICATION_TYPE":"U","BSTAR":"-0.00004317500000","REV_AT_EPOCH":"7197","DECAY_DATE":null,"RCS_SIZE":"LARGE","REF_FRAME":"TEME","MEAN_MOTION":"15.06395815","COUNTRY_CODE":"US","INCLINATION":"53.0560","MEAN_ELEMENT_THEORY":"SGP4","OBJECT_ID":"2021-027AT","FILE":"3517175","ARG_OF_PERICENTER":"78.2389","ELEMENT_SET_NO":"999","APOAPSIS":"548.199","TLE_LINE2":"2 48133  53.0560  21.7587 0001405  78.2389 281.8758 15.06395815 71973","OBJECT_NAME":"STARLINK-2475","OBJECT_TYPE":"PAYLOAD","TLE_LINE1":"1 48133U 21027AT  22199.79547637 -.00000924  00000-0 -43175-4 0  9993"},{"SITE":"AFETR","EPHEMERIS_TYPE":"0","RA_OF_ASC_NODE":"21.8204","PERIOD":"95.592","PERIAPSIS":"546.197","MEAN_MOTION_DOT":"-0.00001088","TIME_SYSTEM":"UTC","EPOCH":"2022-07-18T18:44:15.436608","MEAN_MOTION_DDOT":"0.0000000000000","CENTER_NAME":"EARTH","LAUNCH_DATE":"2021-04-07","ECCENTRICITY":"0.00014870","SEMIMAJOR_AXIS":"6925.362","BSTAR":"-0.00005418300000","GP_ID":"208406271","CLASSIFICATION_TYPE":"U","MEAN_ANOMALY":"269.7147","NORAD_CAT_ID":"48134","REF_FRAME":"TEME","RCS_SIZE":"LARGE","DECAY_DATE":null,"REV_AT_EPOCH":"7196","COUNTRY_CODE":"US","MEAN_MOTION":"15.06395621","APOAPSIS":"548.257","ELEMENT_SET_NO":"999","MEAN_ELEMENT_THEORY":"SGP4","OBJECT_ID":"2021-027AU","ARG_OF_PERICENTER":"90.4013","FILE":"3517175","INCLINATION":"53.0565","TLE_LINE2":"2 48134  53.0565  21.8204 0001487  90.4013 269.7147 15.06395621 71967","OBJECT_NAME":"STARLINK-2476","OBJECT_TYPE":"PAYLOAD","TLE_LINE1":"1 48134U 21027AU  22199.78073422 -.00001088  00000-0 -54183-4 0  9992"},{"APOAPSIS":"548.301","ELEMENT_SET_NO":"999","ARG_OF_PERICENTER":"98.9518","FILE":"3517175","OBJECT_ID":"2021-027AV","MEAN_ELEMENT_THEORY":"SGP4","INCLINATION":"53.0552","COUNTRY_CODE":"US","MEAN_MOTION":"15.06394792","TLE_LINE1":"1 48135U 21027AV  22199.78213415 -.00000046  00000-0  15801-4 0  9997","OBJECT_NAME":"STARLINK-2478","OBJECT_TYPE":"PAYLOAD","TLE_LINE2":"2 48135  53.0552  26.9694 0001547  98.9518 261.1646 15.06394792 71893","EPOCH":"2022-07-18T18:46:16.390560","TIME_SYSTEM":"UTC","MEAN_MOTION_DOT":"-0.00000046","MEAN_MOTION_DDOT":"0.0000000000000","CENTER_NAME":"EARTH","SEMIMAJOR_AXIS":"6925.365","LAUNCH_DATE":"2021-04-07","ECCENTRICITY":"0.00015470","EPHEMERIS_TYPE":"0","SITE":"AFETR","PERIOD":"95.592","RA_OF_ASC_NODE":"26.9694","PERIAPSIS":"546.158","RCS_SIZE":"LARGE","REF_FRAME":"TEME","DECAY_DATE":null,"REV_AT_EPOCH":"7189","BSTAR":"0.00001580100000","CLASSIFICATION_TYPE":"U","GP_ID":"208406523","MEAN_ANOMALY":"261.1646","NORAD_CAT_ID":"48135"},{"MEAN_MOTION":"15.06392330","COUNTRY_CODE":"US","ARG_OF_PERICENTER":"75.2118","FILE":"3517175","OBJECT_ID":"2021-027AW","MEAN_ELEMENT_THEORY":"SGP4","INCLINATION":"53.0554","APOAPSIS":"548.213","ELEMENT_SET_NO":"999","TLE_LINE2":"2 48136  53.0554  21.6891 0001409  75.2118 284.9027 15.06392330 71979","TLE_LINE1":"1 48136U 21027AW  22199.80558783 -.00001170  00000-0 -59709-4 0  9996","OBJECT_NAME":"STARLINK-2479","OBJECT_TYPE":"PAYLOAD","PERIOD":"95.593","RA_OF_ASC_NODE":"21.6891","PERIAPSIS":"546.261","EPHEMERIS_TYPE":"0","SITE":"AFETR","CENTER_NAME":"EARTH","ECCENTRICITY":"0.00014090","LAUNCH_DATE":"2021-04-07","SEMIMAJOR_AXIS":"6925.372","EPOCH":"2022-07-18T19:20:02.788512","TIME_SYSTEM":"UTC","MEAN_MOTION_DOT":"-0.00001170","MEAN_MOTION_DDOT":"0.0000000000000","MEAN_ANOMALY":"284.9027","NORAD_CAT_ID":"48136","BSTAR":"-0.00005970900000","GP_ID":"208406761","CLASSIFICATION_TYPE":"U","RCS_SIZE":"LARGE","REF_FRAME":"TEME","REV_AT_EPOCH":"7197","DECAY_DATE":null},{"PERIOD":"95.592","RA_OF_ASC_NODE":"1.8666","PERIAPSIS":"546.294","EPHEMERIS_TYPE":"0","SITE":"AFETR","CENTER_NAME":"EARTH","LAUNCH_DATE":"2021-04-07","SEMIMAJOR_AXIS":"6925.347","ECCENTRICITY":"0.00013250","EPOCH":"2022-07-18T18:20:21.390144","TIME_SYSTEM":"UTC","MEAN_MOTION_DOT":"0.00000163","MEAN_MOTION_DDOT":"0.0000000000000","MEAN_ANOMALY":"288.7548","NORAD_CAT_ID":"48137","BSTAR":"0.00002984900000","CLASSIFICATION_TYPE":"U","GP_ID":"208405523","RCS_SIZE":"LARGE","REF_FRAME":"TEME","DECAY_DATE":null,"REV_AT_EPOCH":"7224","MEAN_MOTION":"15.06400521","COUNTRY_CODE":"US","ARG_OF_PERICENTER":"71.3584","FILE":"3517175","MEAN_ELEMENT_THEORY":"SGP4","OBJECT_ID":"2021-027AX","INCLINATION":"53.0569","APOAPSIS":"548.130","ELEMENT_SET_NO":"999","TLE_LINE2":"2 48137  53.0569   1.8666 0001325  71.3584 288.7548 15.06400521 72240","TLE_LINE1":"1 48137U 21027AX  22199.76413646  .00000163  00000-0  29849-4 0  9991","OBJECT_TYPE":"PAYLOAD","OBJECT_NAME":"STARLINK-2480"},{"TLE_LINE1":"1 48138U 21027AY  22199.79179198 -.00001220  00000-0 -63065-4 0  9991","OBJECT_NAME":"STARLINK-2481","OBJECT_TYPE":"PAYLOAD","TLE_LINE2":"2 48138  53.0564  21.7799 0001499  75.8205 284.2950 15.06388972 71977","ELEMENT_SET_NO":"999","APOAPSIS":"548.285","INCLINATION":"53.0564","ARG_OF_PERICENTER":"75.8205","FILE":"3517175","OBJECT_ID":"2021-027AY","MEAN_ELEMENT_THEORY":"SGP4","COUNTRY_CODE":"US","MEAN_MOTION":"15.06388972","DECAY_DATE":null,"REV_AT_EPOCH":"7197","RCS_SIZE":"LARGE","REF_FRAME":"TEME","CLASSIFICATION_TYPE":"U","GP_ID":"208405773","BSTAR":"-0.00006306500000","NORAD_CAT_ID":"48138","MEAN_ANOMALY":"284.2950","MEAN_MOTION_DDOT":"0.0000000000000","EPOCH":"2022-07-18T19:00:10.827072","TIME_SYSTEM":"UTC","MEAN_MOTION_DOT":"-0.00001220","SEMIMAJOR_AXIS":"6925.382","LAUNCH_DATE":"2021-04-07","ECCENTRICITY":"0.00014990","CENTER_NAME":"EARTH","EPHEMERIS_TYPE":"0","SITE":"AFETR","PERIAPSIS":"546.209","PERIOD":"95.593","RA_OF_ASC_NODE":"21.7799"},{"TLE_LINE2":"2 48139  53.0557   1.5181 0001542  84.8332 275.2833 15.06404099 72263","OBJECT_NAME":"STARLINK-2482","OBJECT_TYPE":"PAYLOAD","TLE_LINE1":"1 48139U 21027AZ  22199.84891540  .00001243  00000-0  10235-3 0  9993","MEAN_MOTION":"15.06404099","COUNTRY_CODE":"US","OBJECT_ID":"2021-027AZ","MEAN_ELEMENT_THEORY":"SGP4","ARG_OF_PERICENTER":"84.8332","FILE":"3517175","INCLINATION":"53.0557","APOAPSIS":"548.269","ELEMENT_SET_NO":"999","MEAN_ANOMALY":"275.2833","NORAD_CAT_ID":"48139","BSTAR":"0.00010235000000","CLASSIFICATION_TYPE":"U","GP_ID":"208407023","REF_FRAME":"TEME","RCS_SIZE":"LARGE","DECAY_DATE":null,"REV_AT_EPOCH":"7226","RA_OF_ASC_NODE":"1.5181","PERIOD":"95.592","PERIAPSIS":"546.133","SITE":"AFETR","EPHEMERIS_TYPE":"0","CENTER_NAME":"EARTH","LAUNCH_DATE":"2021-04-07","SEMIMAJOR_AXIS":"6925.336","ECCENTRICITY":"0.00015420","MEAN_MOTION_DOT":"0.00001243","EPOCH":"2022-07-18T20:22:26.290560","TIME_SYSTEM":"UTC","MEAN_MOTION_DDOT":"0.0000000000000"}];
